{
  "type": "FeatureCollection",
  "features": [
    {
      "type": "Feature",
      "properties": {
        "norad_id": 58647,
        "name": "TIANMU-1 13",
        "group": "weather",
        "lat": 21.662445130128916,
        "lon": -157.5014827782896,
        "alt_km": 488.72107580395914,
        "timestamp": "2025-12-26T03:50:11.730514+00:00",
        "meta_object_name": "TIANMU-1 13",
        "meta_object_id": "2023-205C",
        "meta_epoch": "2025-12-25T19:16:10.997184",
        "meta_mean_motion": 15.24685677,
        "meta_eccentricity": 0.000671,
        "meta_inclination": 97.3614,
        "meta_ra_of_asc_node": 19.2043,
        "meta_arg_of_pericenter": 210.4543,
        "meta_mean_anomaly": 149.6306,
        "meta_ephemeris_type": 0,
        "meta_classification_type": "U",
        "meta_norad_cat_id": 58647,
        "meta_element_set_no": 999,
        "meta_rev_at_epoch": 11106,
        "meta_bstar": 0.00029166,
        "meta_mean_motion_dot": 7.144e-05,
        "meta_mean_motion_ddot": 0,
        "tle_line1": "1 58647U 23205C   25359.80290506  .00007144  00000+0  29166-3 0  9998",
        "tle_line2": "2 58647  97.3614  19.2043 0006710 210.4543 149.6306 15.24685677111063"
      },
      "geometry": {
        "type": "Point",
        "coordinates": [
          -157.5014827782896,
          21.662445130128916
        ]
      }
    },
    {
      "type": "Feature",
      "properties": {
        "norad_id": 58648,
        "name": "TIANMU-1 14",
        "group": "weather",
        "lat": -67.26268915632728,
        "lon": -179.0601307241713,
        "alt_km": 494.77586841010816,
        "timestamp": "2025-12-26T03:50:11.730524+00:00",
        "meta_object_name": "TIANMU-1 14",
        "meta_object_id": "2023-205D",
        "meta_epoch": "2025-12-25T20:26:59.643744",
        "meta_mean_motion": 15.24669385,
        "meta_eccentricity": 0.0007428,
        "meta_inclination": 97.3547,
        "meta_ra_of_asc_node": 18.5892,
        "meta_arg_of_pericenter": 216.1887,
        "meta_mean_anomaly": 143.8849,
        "meta_ephemeris_type": 0,
        "meta_classification_type": "U",
        "meta_norad_cat_id": 58648,
        "meta_element_set_no": 999,
        "meta_rev_at_epoch": 11107,
        "meta_bstar": 0.00027319,
        "meta_mean_motion_dot": 6.685e-05,
        "meta_mean_motion_ddot": 0,
        "tle_line1": "1 58648U 23205D   25359.85207921  .00006685  00000+0  27319-3 0  9990",
        "tle_line2": "2 58648  97.3547  18.5892 0007428 216.1887 143.8849 15.24669385111071"
      },
      "geometry": {
        "type": "Point",
        "coordinates": [
          -179.0601307241713,
          -67.26268915632728
        ]
      }
    },
    {
      "type": "Feature",
      "properties": {
        "norad_id": 58660,
        "name": "TIANMU-1 19",
        "group": "weather",
        "lat": -53.02110289751941,
        "lon": 121.16466393203426,
        "alt_km": 489.67631687477024,
        "timestamp": "2025-12-26T03:50:11.730534+00:00",
        "meta_object_name": "TIANMU-1 19",
        "meta_object_id": "2023-208A",
        "meta_epoch": "2025-12-25T20:12:47.745792",
        "meta_mean_motion": 15.28087759,
        "meta_eccentricity": 0.0004848,
        "meta_inclination": 97.4387,
        "meta_ra_of_asc_node": 110.8551,
        "meta_arg_of_pericenter": 197.5933,
        "meta_mean_anomaly": 162.5139,
        "meta_ephemeris_type": 0,
        "meta_classification_type": "U",
        "meta_norad_cat_id": 58660,
        "meta_element_set_no": 999,
        "meta_rev_at_epoch": 11082,
        "meta_bstar": 0.00036256,
        "meta_mean_motion_dot": 9.861e-05,
        "meta_mean_motion_ddot": 0,
        "tle_line1": "1 58660U 23208A   25359.84221928  .00009861  00000+0  36256-3 0  9998",
        "tle_line2": "2 58660  97.4387 110.8551 0004848 197.5933 162.5139 15.28087759110828"
      },
      "geometry": {
        "type": "Point",
        "coordinates": [
          121.16466393203426,
          -53.02110289751941
        ]
      }
    },
    {
      "type": "Feature",
      "properties": {
        "norad_id": 58661,
        "name": "TIANMU-1 20",
        "group": "weather",
        "lat": 75.84842395835695,
        "lon": 80.45184919602792,
        "alt_km": 473.99351401631975,
        "timestamp": "2025-12-26T03:50:11.730544+00:00",
        "meta_object_name": "TIANMU-1 20",
        "meta_object_id": "2023-208B",
        "meta_epoch": "2025-12-25T21:12:54.607104",
        "meta_mean_motion": 15.29278216,
        "meta_eccentricity": 0.000687,
        "meta_inclination": 97.4324,
        "meta_ra_of_asc_node": 111.3573,
        "meta_arg_of_pericenter": 211.87,
        "meta_mean_anomaly": 148.2125,
        "meta_ephemeris_type": 0,
        "meta_classification_type": "U",
        "meta_norad_cat_id": 58661,
        "meta_element_set_no": 999,
        "meta_rev_at_epoch": 11090,
        "meta_bstar": 0.00035258,
        "meta_mean_motion_dot": 9.948e-05,
        "meta_mean_motion_ddot": 0,
        "tle_line1": "1 58661U 23208B   25359.88396536  .00009948  00000+0  35258-3 0  9998",
        "tle_line2": "2 58661  97.4324 111.3573 0006870 211.8700 148.2125 15.29278216110905"
      },
      "geometry": {
        "type": "Point",
        "coordinates": [
          80.45184919602792,
          75.84842395835695
        ]
      }
    },
    {
      "type": "Feature",
      "properties": {
        "norad_id": 58662,
        "name": "TIANMU-1 21",
        "group": "weather",
        "lat": -24.746130111214256,
        "lon": -69.84991869816125,
        "alt_km": 471.54522458589236,
        "timestamp": "2025-12-26T03:50:11.730553+00:00",
        "meta_object_name": "TIANMU-1 21",
        "meta_object_id": "2023-208C",
        "meta_epoch": "2025-12-25T20:40:25.813632",
        "meta_mean_motion": 15.31831464,
        "meta_eccentricity": 0.0006505,
        "meta_inclination": 97.4374,
        "meta_ra_of_asc_node": 113.3025,
        "meta_arg_of_pericenter": 206.2671,
        "meta_mean_anomaly": 153.8242,
        "meta_ephemeris_type": 0,
        "meta_classification_type": "U",
        "meta_norad_cat_id": 58662,
        "meta_element_set_no": 999,
        "meta_rev_at_epoch": 11100,
        "meta_bstar": 0.00039718,
        "meta_mean_motion_dot": 0.00012142,
        "meta_mean_motion_ddot": 0,
        "tle_line1": "1 58662U 23208C   25359.86140988  .00012142  00000+0  39718-3 0  9990",
        "tle_line2": "2 58662  97.4374 113.3025 0006505 206.2671 153.8242 15.31831464111002"
      },
      "geometry": {
        "type": "Point",
        "coordinates": [
          -69.84991869816125,
          -24.746130111214256
        ]
      }
    },
    {
      "type": "Feature",
      "properties": {
        "norad_id": 58663,
        "name": "TIANMU-1 22",
        "group": "weather",
        "lat": -63.72202816210292,
        "lon": 126.56783277465829,
        "alt_km": 489.02932097221947,
        "timestamp": "2025-12-26T03:50:11.730564+00:00",
        "meta_object_name": "TIANMU-1 22",
        "meta_object_id": "2023-208D",
        "meta_epoch": "2025-12-25T20:15:36.726912",
        "meta_mean_motion": 15.27824887,
        "meta_eccentricity": 0.0003027,
        "meta_inclination": 97.438,
        "meta_ra_of_asc_node": 110.9101,
        "meta_arg_of_pericenter": 220.4245,
        "meta_mean_anomaly": 139.677,
        "meta_ephemeris_type": 0,
        "meta_classification_type": "U",
        "meta_norad_cat_id": 58663,
        "meta_element_set_no": 999,
        "meta_rev_at_epoch": 11083,
        "meta_bstar": 0.0003527,
        "meta_mean_motion_dot": 9.512e-05,
        "meta_mean_motion_ddot": 0,
        "tle_line1": "1 58663U 23208D   25359.84417508  .00009512  00000+0  35270-3 0  9990",
        "tle_line2": "2 58663  97.4380 110.9101 0003027 220.4245 139.6770 15.27824887110833"
      },
      "geometry": {
        "type": "Point",
        "coordinates": [
          126.56783277465829,
          -63.72202816210292
        ]
      }
    },
    {
      "type": "Feature",
      "properties": {
        "norad_id": 58700,
        "name": "TIANMU-1 15",
        "group": "weather",
        "lat": -82.52462713947146,
        "lon": -85.89093578010447,
        "alt_km": 496.03011575250366,
        "timestamp": "2025-12-26T03:50:11.730574+00:00",
        "meta_object_name": "TIANMU-1 15",
        "meta_object_id": "2024-004A",
        "meta_epoch": "2025-12-25T20:21:22.540320",
        "meta_mean_motion": 15.24580244,
        "meta_eccentricity": 0.0006098,
        "meta_inclination": 97.463,
        "meta_ra_of_asc_node": 181.2686,
        "meta_arg_of_pericenter": 234.3026,
        "meta_mean_anomaly": 125.7645,
        "meta_ephemeris_type": 0,
        "meta_classification_type": "U",
        "meta_norad_cat_id": 58700,
        "meta_element_set_no": 999,
        "meta_rev_at_epoch": 10934,
        "meta_bstar": 0.00031696,
        "meta_mean_motion_dot": 7.744e-05,
        "meta_mean_motion_ddot": 0,
        "tle_line1": "1 58700U 24004A   25359.84817755  .00007744  00000+0  31696-3 0  9998",
        "tle_line2": "2 58700  97.4630 181.2686 0006098 234.3026 125.7645 15.24580244109348"
      },
      "geometry": {
        "type": "Point",
        "coordinates": [
          -85.89093578010447,
          -82.52462713947146
        ]
      }
    }
  ]
}